CCSDS_OMM_VERS,COMMENT,CREATION_DATE,ORIGINATOR,OBJECT_NAME,OBJECT_ID,CENTER_NAME,REF_FRAME,TIME_SYSTEM,MEAN_ELEMENT_THEORY,EPOCH,MEAN_MOTION,ECCENTRICITY,INCLINATION,RA_OF_ASC_NODE,ARG_OF_PERICENTER,MEAN_ANOMALY,EPHEMERIS_TYPE,CLASSIFICATION_TYPE,NORAD_CAT_ID,ELEMENT_SET_NO,REV_AT_EPOCH,BSTAR,MEAN_MOTION_DOT,MEAN_MOTION_DDOT,SEMIMAJOR_AXIS,PERIOD,APOAPSIS,PERIAPSIS,OBJECT_TYPE,RCS_SIZE,COUNTRY_CODE,LAUNCH_DATE,SITE,DECAY_DATE,FILE,GP_ID,TLE_LINE0,TLE_LINE1,TLE_LINE2
3.0,GENERATED VIA SPACE-TRACK.ORG API,2022-02-25T08:06:15,18 SPCS,COSMOS 1408 DEB,1982-092AJT,EARTH,TEME,UTC,SGP4,2022-02-24T07:53:41.241120,15.74461792,0.0044119,82.6564,22.1307,135.7585,224.7221,0,U,50568,999,1184,0.0087735,0.01510821,0.0,6724.3,91.46,375.832,316.498,DEBRIS,SMALL,CIS,1982-09-16,PKMTR,2022-03-01,3321116,196922973,0 COSMOS 1408 DEB,1 50568U 82092AJT 22055.32894955  .01510821  00000-0  87735-2 0  9994,2 50568  82.6564  22.1307 0044119 135.7585 224.7221 15.74461792 11845
3.0,GENERATED VIA SPACE-TRACK.ORG API,2004-08-15T23:35:47,18 SPCS,GEMINI 10,1966-066A,EARTH,TEME,UTC,SGP4,1966-07-19T05:24:29.653344,15.12489774,0.03313,28.8003,86.1306,136.6333,225.7787,0,U,2349,999,5,0.0,0.0,0.0,6906.751,95.207,757.437,299.795,PAYLOAD,,,,,1966-07-21,33914,8720594,0 GEMINI 10,1 02349U 66066  A 66200.22534321  .00000000 +00000-0 +00000-0 0  9998,2 02349 028.8003 086.1306 0331300 136.6333 225.7787 15.12489774000051
3.0,GENERATED VIA SPACE-TRACK.ORG API,2004-08-17T14:44:45,18 SPCS,COSMOS 2099 DEB,1990-080E,EARTH,TEME,UTC,SGP4,1990-09-15T13:30:49.286015,16.22380867,0.0026921,82.3161,108.1269,73.516,287.5646,0,U,20807,999,244,0.0018519,0.04545296,5.6929e-06,6591.236,88.758,230.845,195.357,DEBRIS,SMALL,CIS,1990-08-31,PKMTR,1990-09-16,34744,17856757,0 COSMOS 2099 DEB,1 20807U 90080  E 90258.56307044  .04545296 +56929-5 +18519-2 0  9994,2 20807 082.3161 108.1269 0026921 073.5160 287.5646 16.22380867002440
3.0,GENERATED VIA SPACE-TRACK.ORG API,2024-08-23T11:26:15,18 SPCS,STARLINK-30040,2023-026C,EARTH,TEME,UTC,SGP4,2024-08-23T09:59:05.851680,16.29187241,0.0002579,42.9809,238.4199,52.9436,97.5084,0,U,55697,999,8645,0.0057969,0.25715786,9.0989e-06,6572.862,88.388,196.422,193.032,PAYLOAD,LARGE,US,2023-02-27,AFETR,2024-08-23,4451749,265971030,0 STARLINK-30040,1 55697U 23026C   24236.41603995  .25715786  90989-5  57969-2 0  9998,2 55697  42.9809 238.4199 0002579  52.9436  97.5084 16.29187241 86451
3.0,GENERATED VIA SPACE-TRACK.ORG API,2024-04-07T21:16:14,18 SPCS,UMBRA-03,2022-057X,EARTH,TEME,UTC,SGP4,2024-04-07T20:10:58.689120,16.43250637,0.0015262,97.4982,225.1899,259.8822,265.5411,0,U,52753,999,10393,0.00096663,0.29622695,2.6279e-06,6535.307,87.631,167.146,147.197,PAYLOAD,LARGE,US,2022-05-25,AFETR,2024-04-08,4267875,253951704,0 UMBRA-03,1 52753U 22057X   24098.84095705  .29622695  26279-5  96663-3 0  9994,2 52753  97.4982 225.1899 0015262 259.8822 265.5411 16.43250637103938
3.0,GENERATED VIA SPACE-TRACK.ORG API,2005-04-29T09:12:45,18 SPCS,FOTON 3 DEB,1990-032E,EARTH,TEME,UTC,SGP4,1990-05-06T21:58:41.467871,16.13137974,0.0031953,62.7951,307.1751,353.7634,6.1412,0,U,20590,999,401,0.0064763,0.08335114,9e-06,6616.39,89.267,259.396,217.113,DEBRIS,,,,,1990-05-07,131174,45029952,0 FOTON 3 DEB,1 20590U 90032  E 90126.91575773  .08335114 +90000-5 +64763-2 0  9999,2 20590 062.7951 307.1751 0031953 353.7634 006.1412 16.13137974004015
3.0,GENERATED VIA SPACE-TRACK.ORG API,2011-12-04T00:23:51,18 SPCS,COSMOS 2251 DEB,1993-036QZ,EARTH,TEME,UTC,SGP4,2011-12-04T02:47:38.819328,15.9509019,0.0014014,74.0024,175.0595,91.4469,268.5387,0,U,34408,999,15038,0.055965,0.11631231,0.60939,6666.204,90.277,297.411,278.727,DEBRIS,SMALL,CIS,1993-06-16,PKMTR,2011-12-04,1199806,86185311,0 COSMOS 2251 DEB,1 34408U 93036QZ  11338.11642152  .11631231  60939+0  55965-1 0  9993,2 34408 074.0024 175.0595 0014014 091.4469 268.5387 15.95090190150388
3.0,GENERATED VIA SPACE-TRACK.ORG API,2004-08-15T23:46:53,18 SPCS,THORAD AGENA D DEB,1969-082BR,EARTH,TEME,UTC,SGP4,1980-06-08T11:54:16.036415,16.05861714,0.0017395,70.0987,171.6167,245.3581,114.5832,0,U,4202,999,55977,0.078265,-0.04298782,0.0048149,6636.361,89.671,269.77,246.682,DEBRIS,SMALL,US,1969-09-30,AFWTR,1980-06-08,34136,11255507,0 THORAD AGENA D DEB,1 04202U 69082 BR 80160.49601894 -.04298782 +48149-2 +78265-1 0  9997,2 04202 070.0987 171.6167 0017395 245.3581 114.5832 16.05861714559779
3.0,GENERATED VIA SPACE-TRACK.ORG API,2004-08-17T15:27:21,18 SPCS,FREGAT R/B,2000-045C,EARTH,TEME,UTC,SGP4,2000-08-09T16:48:33.098976,4.80381136,0.5807324,64.8573,162.1723,357.7486,301.7437,0,U,26465,999,0,0.0001,0.00035026,-5.038e-06,14836.956,299.761,17075.122,-157.479,ROCKET BODY,LARGE,CIS,2000-08-09,TTMTR,2000-08-09,35596,34201384,0 FREGAT R/B,1 26465U 00045C   00222.70038309  .00035026 -50380-5  10000-3 0  9990,2 26465 064.8573 162.1723 5807324 357.7486 301.7437 04.80381136    08
3.0,GENERATED VIA SPACE-TRACK.ORG API,2022-10-28T04:08:14,18 SPCS,COSMOS 1408 DEB,1982-092ALD,EARTH,TEME,UTC,SGP4,2022-10-27T19:16:16.764384,15.82607017,0.0018528,82.5581,136.8825,243.3226,116.6146,0,U,50609,999,4774,0.0047305,0.01126404,0.0,6701.208,90.989,335.489,310.657,DEBRIS,SMALL,CIS,1982-09-16,PKMTR,2022-11-05,3636022,216337893,0 COSMOS 1408 DEB,1 50609U 82092ALD 22300.80297181  .01126404  00000-0  47305-2 0  9993,2 50609  82.5581 136.8825 0018528 243.3226 116.6146 15.82607017 47744
3.0,GENERATED VIA SPACE-TRACK.ORG API,2004-08-15T23:46:53,18 SPCS,TITAN 3C TRANSTAGE DEB,1965-082MN,EARTH,TEME,UTC,SGP4,1980-05-28T15:02:17.272320,16.01660176,0.0014826,32.543,357.018,321.4537,38.5102,0,U,3376,999,78399,0.0086378,0.05211992,-1.1976e-06,6647.962,89.906,279.683,259.97,DEBRIS,SMALL,US,1965-10-15,AFETR,1980-05-30,34136,11202181,0 TITAN 3C TRANSTAGE DEB,1 03376U 65082 MN 80149.62658880  .05211992 -11976-5 +86378-2 0  9998,2 03376 032.5430 357.0180 0014826 321.4537 038.5102 16.01660176783997
3.0,GENERATED VIA SPACE-TRACK.ORG API,2022-08-30T17:39:03,18 SPCS,COSMOS 1408 DEB,1982-092ASP,EARTH,TEME,UTC,SGP4,2022-08-30T06:40:02.301888,16.12630356,0.0019561,82.6167,189.4137,175.3643,184.7827,0,U,50763,999,3930,0.0026669,0.02562312,0.0099238,6617.774,89.295,252.584,226.694,DEBRIS,SMALL,CIS,1982-09-16,PKMTR,2022-08-30,3551880,211330950,0 COSMOS 1408 DEB,1 50763U 82092ASP 22242.27780442  .02562312  99238-2  26669-2 0  9993,2 50763  82.6167 189.4137 0019561 175.3643 184.7827 16.12630356 39302
3.0,GENERATED VIA SPACE-TRACK.ORG API,2004-08-16T23:15:56,18 SPCS,SL-4 R/B,1982-035B,EARTH,TEME,UTC,SGP4,1982-04-29T07:41:20.301504,16.48711809,0.0017062,70.3562,7.7642,56.5462,303.7136,0,U,13145,999,128,0.00027048,0.22722445,1.7397e-05,6520.871,87.34,153.862,131.61,ROCKET BODY,,,,,1982-04-29,34345,12898879,0 SL-4 R/B,1 13145U 82035  B 82119.32037386  .22722445 +17397-4 +27048-3 0  9998,2 13145 070.3562 007.7642 0017062 056.5462 303.7136 16.48711809001288
3.0,GENERATED VIA SPACE-TRACK.ORG API,2005-05-02T23:40:10,18 SPCS,MIR DEB,1986-017BJ,EARTH,TEME,UTC,SGP4,1989-01-21T06:39:31.105439,16.29578521,0.001096,51.6036,23.5777,197.0208,168.5343,0,U,19738,999,16822,0.0011617,0.05335624,5.52e-05,6571.813,88.366,200.881,186.476,DEBRIS,,,,,1989-01-22,131042,44070002,0 MIR DEB,1 19738U 86017 BJ 89021.27744335  .05335624 +55200-4 +11617-2 0  9997,2 19738 051.6036 023.5777 0010960 197.0208 168.5343 16.29578521168220
3.0,GENERATED VIA SPACE-TRACK.ORG API,2004-08-16T23:15:23,18 SPCS,COSMOS 1186 DEB,1980-047X,EARTH,TEME,UTC,SGP4,1981-06-11T14:29:43.451232,15.68772721,0.0023052,74.0667,356.1427,212.1594,147.8225,0,U,12486,999,5671,0.00039739,0.00046065,0.0,6740.551,91.791,377.954,346.878,DEBRIS,MEDIUM,CIS,1980-06-06,PKMTR,1981-09-29,34334,12264711,0 COSMOS 1186 DEB,1 12486U 80047  X 81162.60397513  .00046065 +00000-0 +39739-3 0  9997,2 12486 074.0667 356.1427 0023052 212.1594 147.8225 15.68772721056711
3.0,GENERATED VIA SPACE-TRACK.ORG API,2008-08-27T08:12:30,18 SPCS,COSMOS 2421 DEB,2006-026RR,EARTH,TEME,UTC,SGP4,2008-08-26T20:21:09.830016,16.30568421,0.0042449,64.966,200.4194,185.2983,177.6543,0,U,33240,999,755,0.0034119,0.22053964,6.6576e-06,6569.153,88.312,218.904,163.133,DEBRIS,SMALL,CIS,2006-06-25,TTMTR,2008-08-27,597479,67688906,0 COSMOS 2421 DEB,1 33240U 06026RR  08239.84803044  .22053964  66576-5  34119-2 0  9995,2 33240 064.9660 200.4194 0042449 185.2983 177.6543 16.30568421  7550
3.0,GENERATED VIA SPACE-TRACK.ORG API,2004-08-15T23:39:35,18 SPCS,SL-4 R/B,1975-021B,EARTH,TEME,UTC,SGP4,1975-04-09T03:24:22.430592,16.45824058,0.0003599,71.3592,312.5723,26.6286,333.509,0,U,7711,999,207,0.0,0.05489543,0.0,6528.496,87.494,152.711,148.011,ROCKET BODY,,,,,1975-04-09,33990,9517995,0 SL-4 R/B,1 07711U 75021  B 75099.14192628  .05489543 +00000-0 +00000-0 0  9992,2 07711 071.3592 312.5723 0003599 026.6286 333.5090 16.45824058002079
3.0,GENERATED VIA SPACE-TRACK.ORG API,2021-10-08T17:21:57,18 SPCS,SZ-12 MODULE DEB,2021-053H,EARTH,TEME,UTC,SGP4,2021-10-08T10:04:35.916096,16.0667082,0.0010299,41.5278,310.481,99.5492,260.6529,0,U,49255,999,282,0.010637,0.05900038,0.089131,6634.129,89.626,262.826,249.161,DEBRIS,SMALL,PRC,2021-06-17,JSC,2021-10-09,3151292,186558174,0 SZ-12 MODULE DEB,1 49255U 21053H   21281.41986014  .05900038  89131-1  10637-1 0  9999,2 49255  41.5278 310.4810 0010299  99.5492 260.6529 16.06670820  2828
3.0,GENERATED VIA SPACE-TRACK.ORG API,2004-08-15T23:39:47,18 SPCS,SL-4 R/B,1976-013B,EARTH,TEME,UTC,SGP4,1976-02-16T02:58:37.931232,16.29313134,0.0049023,64.983,291.393,59.8084,300.7891,0,U,8686,999,77,0.0,0.03335035,0.0,6572.527,88.38,226.613,162.172,ROCKET BODY,,,,,1976-02-17,33994,9759945,0 SL-4 R/B,1 08686U 76013  B 76047.12405013  .03335035 +00000-0 +00000-0 0  9997,2 08686 064.9830 291.3930 0049023 059.8084 300.7891 16.29313134000774
